0 FENGYUN 1C DEB
1 37058U 99025EES 13282.40913931  .00008499  00000-0  43919-2 0  1354
2 37058 096.6904 355.4048 0155403 121.4546 240.1926 14.09091192209572
0 FENGYUN 1C DEB
1 37058U 99025EES 13285.46251333  .00008874  00000-0  45837-2 0  1363
2 37058 096.6983 357.6850 0154817 113.5843 248.3042 14.09149900210004
0 FENGYUN 1C DEB
1 37058U 99025EES 13290.43280744  .00009722  00000-0  49994-2 0  1376
2 37058 096.7010 001.3957 0156239 099.2932 262.9750 14.09257330210708
0 FENGYUN 1C DEB
1 37058U 99025EES 13292.42073837  .00010361  00000-0  52986-2 0  1387
2 37058 096.7073 002.8956 0159207 093.5717 268.5029 14.09306908210985
0 FENGYUN 1C DEB
1 37058U 99025EES 13294.40864221  .00010704  00000-0  54813-2 0  1395
2 37058 096.7005 004.3598 0157590 087.3166 274.6438 14.09353554211264
0 FENGYUN 1C DEB
1 37058U 99025EES 13295.40257222  .00010790  00000-0  55473-2 0  1403
2 37058 096.6985 005.0934 0154581 083.2803 278.5964 14.09376223211403
